{
  "type": "FeatureCollection",
  "features": [
    {
      "type": "Feature",
      "properties": {
        "norad_id": 36744,
        "name": "COMS 1",
        "group": "weather",
        "lat": -1.6286864257479445,
        "lon": -80.57253636275783,
        "alt_km": 35783.35216875582,
        "timestamp": "2025-12-24T03:53:29.284959+00:00",
        "meta_object_name": "COMS 1",
        "meta_object_id": "2010-032A",
        "meta_epoch": "2025-12-23T17:09:58.603968",
        "meta_mean_motion": 1.00270685,
        "meta_eccentricity": 8e-05,
        "meta_inclination": 4.3651,
        "meta_ra_of_asc_node": 77.8741,
        "meta_arg_of_pericenter": 212.8601,
        "meta_mean_anomaly": 187.4375,
        "meta_ephemeris_type": 0,
        "meta_classification_type": "U",
        "meta_norad_cat_id": 36744,
        "meta_element_set_no": 999,
        "meta_rev_at_epoch": 4933,
        "meta_bstar": 0,
        "meta_mean_motion_dot": -3.25e-06,
        "meta_mean_motion_ddot": 0,
        "tle_line1": "1 36744U 10032A   25357.71526162 -.00000325  00000+0  00000+0 0  9991",
        "tle_line2": "2 36744   4.3651  77.8741 0000800 212.8601 187.4375  1.00270685 49330"
      },
      "geometry": {
        "type": "Point",
        "coordinates": [
          -80.57253636275783,
          -1.6286864257479445
        ]
      }
    },
    {
      "type": "Feature",
      "properties": {
        "norad_id": 37214,
        "name": "FENGYUN 3B",
        "group": "weather",
        "lat": -38.854718051582765,
        "lon": -149.10751815574454,
        "alt_km": 853.6069682768366,
        "timestamp": "2025-12-24T03:53:29.284971+00:00",
        "meta_object_name": "FENGYUN 3B",
        "meta_object_id": "2010-059A",
        "meta_epoch": "2025-12-23T20:52:55.916832",
        "meta_mean_motion": 14.14791439,
        "meta_eccentricity": 0.0021551,
        "meta_inclination": 98.9887,
        "meta_ra_of_asc_node": 37.9243,
        "meta_arg_of_pericenter": 325.8977,
        "meta_mean_anomaly": 207.0045,
        "meta_ephemeris_type": 0,
        "meta_classification_type": "U",
        "meta_norad_cat_id": 37214,
        "meta_element_set_no": 999,
        "meta_rev_at_epoch": 78263,
        "meta_bstar": -2.8445e-05,
        "meta_mean_motion_dot": -1.01e-06,
        "meta_mean_motion_ddot": 0,
        "tle_line1": "1 37214U 10059A   25357.87009163 -.00000101  00000+0 -28445-4 0  9998",
        "tle_line2": "2 37214  98.9887  37.9243 0021551 325.8977 207.0045 14.14791439782638"
      },
      "geometry": {
        "type": "Point",
        "coordinates": [
          -149.10751815574454,
          -38.854718051582765
        ]
      }
    },
    {
      "type": "Feature",
      "properties": {
        "norad_id": 37849,
        "name": "SUOMI NPP",
        "group": "weather",
        "lat": -72.00729995390395,
        "lon": 86.99068588094809,
        "alt_km": 835.8872651860438,
        "timestamp": "2025-12-24T03:53:29.284983+00:00",
        "meta_object_name": "SUOMI NPP",
        "meta_object_id": "2011-061A",
        "meta_epoch": "2025-12-22T15:10:21.732672",
        "meta_mean_motion": 14.19516903,
        "meta_eccentricity": 0.00024883,
        "meta_inclination": 98.7787,
        "meta_ra_of_asc_node": 293.8852,
        "meta_arg_of_pericenter": 103.0781,
        "meta_mean_anomaly": 257.0673,
        "meta_ephemeris_type": 0,
        "meta_classification_type": "U",
        "meta_norad_cat_id": 37849,
        "meta_element_set_no": 999,
        "meta_rev_at_epoch": 73339,
        "meta_bstar": 6.3406935e-05,
        "meta_mean_motion_dot": 8.9e-07,
        "meta_mean_motion_ddot": 0,
        "tle_line1": "1 37849U 11061A   25356.63219598  .00000089  00000+0  63407-4 0  9994",
        "tle_line2": "2 37849  98.7787 293.8852 0002488 103.0781 257.0673 14.19516903733392"
      },
      "geometry": {
        "type": "Point",
        "coordinates": [
          86.99068588094809,
          -72.00729995390395
        ]
      }
    },
    {
      "type": "Feature",
      "properties": {
        "norad_id": 38552,
        "name": "METEOSAT-10 (MSG-3)",
        "group": "weather",
        "lat": 4.269767650050938,
        "lon": 151.6687082270996,
        "alt_km": 35787.10658744224,
        "timestamp": "2025-12-24T03:53:29.284995+00:00",
        "meta_object_name": "METEOSAT-10 (MSG-3)",
        "meta_object_id": "2012-035B",
        "meta_epoch": "2025-12-23T01:08:58.915968",
        "meta_mean_motion": 1.0027689,
        "meta_eccentricity": 7.313e-05,
        "meta_inclination": 4.2513,
        "meta_ra_of_asc_node": 61.6947,
        "meta_arg_of_pericenter": 264.0711,
        "meta_mean_anomaly": 143.6614,
        "meta_ephemeris_type": 0,
        "meta_classification_type": "U",
        "meta_norad_cat_id": 38552,
        "meta_element_set_no": 999,
        "meta_rev_at_epoch": 4909,
        "meta_bstar": 0,
        "meta_mean_motion_dot": 1.6e-07,
        "meta_mean_motion_ddot": 0,
        "tle_line1": "1 38552U 12035B   25357.04790412  .00000016  00000+0  00000+0 0  9998",
        "tle_line2": "2 38552   4.2513  61.6947 0000731 264.0711 143.6614  1.00276890 49095"
      },
      "geometry": {
        "type": "Point",
        "coordinates": [
          151.6687082270996,
          4.269767650050938
        ]
      }
    },
    {
      "type": "Feature",
      "properties": {
        "norad_id": 38771,
        "name": "METOP-B",
        "group": "weather",
        "lat": -4.234882633066064,
        "lon": -132.72163422233177,
        "alt_km": 823.0174133660494,
        "timestamp": "2025-12-24T03:53:29.285007+00:00",
        "meta_object_name": "METOP-B",
        "meta_object_id": "2012-049A",
        "meta_epoch": "2025-12-23T18:34:51.578976",
        "meta_mean_motion": 14.21412415,
        "meta_eccentricity": 0.0003251,
        "meta_inclination": 98.6783,
        "meta_ra_of_asc_node": 47.5451,
        "meta_arg_of_pericenter": 120.9791,
        "meta_mean_anomaly": 239.1706,
        "meta_ephemeris_type": 0,
        "meta_classification_type": "U",
        "meta_norad_cat_id": 38771,
        "meta_element_set_no": 999,
        "meta_rev_at_epoch": 68834,
        "meta_bstar": 7.5947e-05,
        "meta_mean_motion_dot": 1.22e-06,
        "meta_mean_motion_ddot": 0,
        "tle_line1": "1 38771U 12049A   25357.77420809  .00000122  00000+0  75947-4 0  9991",
        "tle_line2": "2 38771  98.6783  47.5451 0003251 120.9791 239.1706 14.21412415688347"
      },
      "geometry": {
        "type": "Point",
        "coordinates": [
          -132.72163422233177,
          -4.234882633066064
        ]
      }
    },
    {
      "type": "Feature",
      "properties": {
        "norad_id": 39216,
        "name": "INSAT-3D",
        "group": "weather",
        "lat": -0.4281294348215036,
        "lon": -79.15187503468381,
        "alt_km": 35779.30596026252,
        "timestamp": "2025-12-24T03:53:29.285019+00:00",
        "meta_object_name": "INSAT-3D",
        "meta_object_id": "2013-038B",
        "meta_epoch": "2025-12-23T18:53:03.733728",
        "meta_mean_motion": 1.00275136,
        "meta_eccentricity": 0.0001865,
        "meta_inclination": 1.4717,
        "meta_ra_of_asc_node": 84.8727,
        "meta_arg_of_pericenter": 154.7679,
        "meta_mean_anomaly": 265.7223,
        "meta_ephemeris_type": 0,
        "meta_classification_type": "U",
        "meta_norad_cat_id": 39216,
        "meta_element_set_no": 999,
        "meta_rev_at_epoch": 4532,
        "meta_bstar": 0,
        "meta_mean_motion_dot": -3.18e-06,
        "meta_mean_motion_ddot": 0,
        "tle_line1": "1 39216U 13038B   25357.78684877 -.00000318  00000+0  00000+0 0  9994",
        "tle_line2": "2 39216   1.4717  84.8727 0001865 154.7679 265.7223  1.00275136 45324"
      },
      "geometry": {
        "type": "Point",
        "coordinates": [
          -79.15187503468381,
          -0.4281294348215036
        ]
      }
    },
    {
      "type": "Feature",
      "properties": {
        "norad_id": 39260,
        "name": "FENGYUN 3C",
        "group": "weather",
        "lat": -16.37865669138396,
        "lon": 152.77200194971041,
        "alt_km": 835.7325690450598,
        "timestamp": "2025-12-24T03:53:29.285030+00:00",
        "meta_object_name": "FENGYUN 3C",
        "meta_object_id": "2013-052A",
        "meta_epoch": "2025-12-23T21:52:42.131136",
        "meta_mean_motion": 14.15699493,
        "meta_eccentricity": 0.00149,
        "meta_inclination": 98.4777,
        "meta_ra_of_asc_node": 335.0461,
        "meta_arg_of_pericenter": 163.7605,
        "meta_mean_anomaly": 196.405,
        "meta_ephemeris_type": 0,
        "meta_classification_type": "U",
        "meta_norad_cat_id": 39260,
        "meta_element_set_no": 999,
        "meta_rev_at_epoch": 63376,
        "meta_bstar": 7.3263e-05,
        "meta_mean_motion_dot": 1.03e-06,
        "meta_mean_motion_ddot": 0,
        "tle_line1": "1 39260U 13052A   25357.91159874  .00000103  00000+0  73263-4 0  9995",
        "tle_line2": "2 39260  98.4777 335.0461 0014900 163.7605 196.4050 14.15699493633769"
      },
      "geometry": {
        "type": "Point",
        "coordinates": [
          152.77200194971041,
          -16.37865669138396
        ]
      }
    }
  ]
}